18D/Perrine-Mrkos,e,16.8805,237.9367,156.9370,3.950382,0.1255294,0.58399204,164.6866,09/30.0/2020,2000,g 11.5,8.0
# From MPC 92984
19P/Borrelly,e,29.3702,74.3811,351.8244,3.606259,0.1439192,0.63824187,289.5343,09/30.0/2020,2000,g  4.5,10.0
# From  27, 604
20D/Westphal,e,40.9140,348.3378,56.5163,15.75686,0.0157579,0.91979277,258.7459,09/30.0/2020,2000,g 13.0,8.0
# From MPC111773
21P/Giacobini-Zinner,e,32.0175,195.3609,172.8483,3.495954,0.1507841,0.71071596,113.1734,09/30.0/2020,2000,g  9.0,6.0
# From MPC 94283
22P/Kopff,e,4.7420,120.8372,162.9689,3.442625,0.1543013,0.54889133,277.6005,09/30.0/2020,2000,g  3.0,10.4
# From MPC 14747
23P/Brorsen-Metcalf,e,19.1333,312.4187,128.8170,16.95391,0.0141188,0.97107369,0.0000,08/10.3940/1989,2000,g 10.0,6.0
# From MPC110085
24P/Schaumasse,e,11.6376,79.2001,57.8322,4.056125,0.1206527,0.70884584,126.4379,09/30.0/2020,2000,g  6.5,14.0
# From  10, 252
25D/Neujmin 2,e,5.3237,307.5255,215.3461,3.095563,0.1809650,0.58304513,73.8893,09/30.0/2020,2000,g 12.5,6.0
# From MPC 94674
26P/Grigg-Skjellerup,e,22.4417,211.5397,2.1927,3.013986,0.1883615,0.64057120,137.3950,09/30.0/2020,2000,g 12.0,16.0
# From MPC 78188
27P/Crommelin,e,29.1456,250.5842,195.9848,9.189041,0.0353833,0.91801296,118.7443,09/30.0/2020,2000,g 12.0,8.0
# From MPEC 2020-SI8
28P/Neujmin,e,14.3109,346.3392,347.4229,6.977067,0.0534804,0.77381845,351.2874,09/30.0/2020,2000,g  8.5,6.0
# From MPEC 2020-SI8
29P/Schwassmann-Wachmann,e,9.3668,312.3751,48.4686,6.034543,0.0664871,0.04423710,37.4197,09/30.0/2020,2000,g  4.0,4.0
# From MPC110085
30P/Reinmuth,e,8.5929,118.9276,11.5601,3.683559,0.1394128,0.53055095,157.0930,09/30.0/2020,2000,g  9.5,6.0
# From MPC108597
31P/Schwassmann-Wachmann,e,4.5473,114.1143,18.2410,4.240648,0.1128641,0.19235307,51.0778,09/30.0/2020,2000,g  5.0,8.0
# From MPC 92276
32P/Comas Sola,e,9.9193,57.3564,53.5204,4.496371,0.1033739,0.55836050,225.0982,09/30.0/2020,2000,g  6.5,8.0
# From MPEC 2013-O31
33P/Daniel,e,22.3199,66.3472,20.6078,4.083208,0.1194543,0.45224350,180.2282,09/30.0/2020,2000,g 10.0,12.0
# From  9, 314
34D/Gale,e,10.6038,57.9624,218.0155,5.006744,0.0879774,0.75951413,170.6241,09/30.0/2020,2000,g  9.0,4.0
# From  15, 452
35P/Herschel-Rigollet,e,64.840,356.459,29.045,28.5664,0.006455,0.9735660,0.000,12/24.3971/2091,2000,g  9.0,4.0
# From MPEC 2020-SI8
36P/Whipple,e,9.9521,181.8612,200.7885,4.131255,0.1173765,0.26858529,14.2365,09/30.0/2020,2000,g  8.5,6.0
# From MPEC 2018-HA5
37P/Forbes,e,8.9574,314.5607,330.0935,3.459489,0.1531744,0.53406547,134.7485,09/30.0/2020,2000,g 10.5,4.8
# From MPEC 2018-S50
38P/Stephan-Oterma,e,18.3554,77.9888,359.5342,11.25095,0.0261168,0.85893107,17.9971,09/30.0/2020,2000,g  3.5,12.0
# From MPC115887
39P/Oterma,e,1.5612,299.2550,95.1823,7.403772,0.0489243,0.22404290,313.1857,09/30.0/2020,2000,g  7.0,6.0
# From MPC100283
40P/Vaisala,e,11.4696,133.7806,47.4576,4.951034,0.0894664,0.62986977,192.2027,09/30.0/2020,2000,g  5.5,12.0
# From MPC105240
41P/Tuttle-Giacobini-Kresak,e,9.2210,140.9935,62.2620,3.086285,0.1817817,0.66020013,230.3218,09/30.0/2020,2000,g 10.0,16.0
# From MPC 94283
42P/Neujmin,e,3.9897,150.1873,147.1829,4.872951,0.0916254,0.58545119,183.1500,09/30.0/2020,2000,g 13.0,6.0
# From MPC102956
43P/Wolf-Harrington,e,9.3739,244.3555,224.0791,4.308669,0.1102020,0.43798389,164.8048,09/30.0/2020,2000,g  8.0,6.0
# From MPEC 2020-HN5
44P/Reinmuth,e,5.8984,286.4807,58.1370,3.688601,0.1391270,0.42718465,280.6199,09/30.0/2020,2000,g  8.3,6.0
# From MPC103849
45P/Honda-Mrkos-Pajdusakova,e,4.3247,87.7032,327.9492,3.050379,0.1850007,0.81759158,254.0670,09/30.0/2020,2000,g 13.5,8.0
# From MPC114607
46P/Wirtanen,e,11.7437,82.1569,356.3606,3.091689,0.1813052,0.65829550,119.1745,09/30.0/2020,2000,g 14.0,6.0
# From NK 2718
47P/Ashbrook-Jackson,e,13.0356,356.9249,357.6078,4.124912,0.1176473,0.31801690,142.0378,09/30.0/2020,2000,g  9.0,4.0
# From MPEC 2015-M77
48P/Johnson,e,12.2080,110.1267,216.6255,3.500548,0.1504874,0.42737182,117.2998,09/30.0/2020,2000,g  9.0,4.0
# From MPEC 2020-K19
49P/Arend-Rigaux,e,19.0461,118.7965,332.9712,3.569936,0.1461213,0.59849438,118.0809,09/30.0/2020,2000,g 11.3,4.4
# From MPEC 2015-S97
50P/Arend,e,19.0984,355.1626,49.3328,4.089297,0.1191876,0.52865319,202.4270,09/30.0/2020,2000,g  9.5,6.0
# From NK 3013
51P-D/Harrington,e,5.4257,83.6706,269.2528,3.707986,0.1380374,0.54309885,258.9653,09/30.0/2020,2000,g 16.0,8.0
# From MPC 88330
52P/Harrington-Abell,e,10.2316,336.8386,139.5986,3.862586,0.1298335,0.53984001,311.9309,09/30.0/2020,2000,g 13.5,6.0
# From MPC100283
53P/Van Biesbroeck,e,6.6085,148.8275,134.4248,5.425338,0.0779945,0.55218749,125.8061,09/30.0/2020,2000,g  7.7,4.8
# From MPC 89011
54P/de Vico-Swift-NEAT,e,6.0623,358.8140,1.7649,3.792740,0.1334364,0.42558284,168.5143,09/30.0/2020,2000,g  9.0,4.0
# From MPC 31070
55P/Tempel-Tuttle,e,162.3928,235.4045,172.5298,10.35028,0.0295989,0.90654942,245.1040,09/30.0/2020,2000,g  9.0,4.0
# From MPC101100
56P/Slaughter-Burnham,e,8.1587,345.9851,44.0057,5.071293,0.0863030,0.50699203,132.4256,09/30.0/2020,2000,g  8.5,6.0
# From MPEC 2020-SI8
58P/Jackson-Neujmin,e,13.1098,159.0795,200.4379,4.079899,0.1195997,0.66239972,15.0192,09/30.0/2020,2000,g 15.5,6.0
# From MPC111774
59P/Kearns-Kwee,e,9.3415,312.8341,127.5953,4.488663,0.1036403,0.47487949,77.1627,09/30.0/2020,2000,g  7.0,6.0
# From MPEC 2015-M77
60P/Tsuchinshan,e,3.6010,267.5877,216.8270,3.519003,0.1493051,0.53657871,98.3935,09/30.0/2020,2000,g  9.0,4.0
# From MPEC 2015-Q71
61P/Shajn-Schaldach,e,5.9988,162.9857,221.8810,3.685164,0.1393217,0.42383789,254.8765,09/30.0/2020,2000,g  6.0,10.0
# From MPC109147
62P/Tsuchinshan,e,5.0161,72.6039,44.2085,3.330499,0.1621586,0.64022471,169.4599,09/30.0/2020,2000,g  8.0,10.0
# From MPC 84320
63P/Wild,e,19.7338,358.0180,169.1369,5.605261,0.0742695,0.64894436,203.0684,09/30.0/2020,2000,g 10.5,6.0
# From MPC111774
64P/Swift-Gehrels,e,8.9504,300.0021,97.0860,4.454625,0.1048304,0.68767169,72.9645,09/30.0/2020,2000,g  9.5,12.0
# From MPC104795
65P/Gunn,e,9.1820,62.0235,213.8201,3.884661,0.1287284,0.24976158,138.7931,09/30.0/2020,2000,g  5.0,6.0
# From MPC109147
66P/du Toit,e,18.6575,21.8602,257.3216,6.063925,0.0660045,0.78691603,57.0803,09/30.0/2020,2000,g  9.0,4.0
# From MPC 89011
67P/Churyumov-Gerasimenko,e,3.8741,36.5229,21.9972,3.458683,0.1532279,0.65077977,299.0519,09/30.0/2020,2000,g 11.0,4.0
# From MPC 75716
68P/Klemola,e,11.1102,175.0758,153.0897,4.950750,0.0894741,0.63759466,29.1611,09/30.0/2020,2000,g 10.0,4.0
# From MPC114607
69P/Taylor,e,22.0331,104.8300,343.4916,3.888798,0.1285230,0.41304717,72.2007,09/30.0/2020,2000,g  9.5,12.0
# From KK 167
69P-A/Taylor,e,17.5285,104.5043,342.9718,3.751049,0.1356672,0.49066559,114.1630,09/30.0/2020,2000,g  9.5,12.0
# From  26, 166
69P-B/Taylor,e,22.2619,104.8255,343.9216,3.893592,0.1282857,0.40841244,69.8067,09/30.0/2020,2000,g 11.0,6.0
# From MPC 92276
70P/Kojima,e,6.5982,119.2675,1.8524,3.675772,0.1398560,0.45344909,304.1689,09/30.0/2020,2000,g 11.0,6.0
# From MPC107051
71P/Clark,e,9.4401,59.4319,209.0266,3.138261,0.1772844,0.49412783,210.4962,09/30.0/2020,2000,g  9.8,6.0
# From MPC 89011
72P/Denning-Fujikawa,e,10.9343,26.6895,346.6751,4.311463,0.1100949,0.81815691,251.0947,09/30.0/2020,2000,g 17.5,10.0
# From MPC106348
73P/Schwassmann-Wachmann,e,11.2324,69.6446,199.4493,3.093069,0.1811839,0.68565654,234.1671,09/30.0/2020,2000,g 11.5,6.0
# From NK 1613
73P-B/Schwassmann-Wachmann B,e,11.2382,69.6541,199.4126,3.094359,0.1810707,0.68593377,233.5033,09/30.0/2020,2000,g 11.5,6.0
# From NK 2710
73P-C/Schwassmann-Wachmann,e,11.2323,69.6472,199.4472,3.093115,0.1811799,0.68566189,234.1621,09/30.0/2020,2000,g 11.5,6.0
# From NK 934
73P-E/Schwassmann-Wachmann,e,11.2469,69.6555,199.3907,3.097411,0.1808030,0.68640932,232.1032,09/30.0/2020,2000,g 11.5,6.0
# From MPC 56796
73P-G/Schwassmann-Wachmann,e,11.388,69.909,198.772,3.06230,0.183922,0.6933024,359.982,06/08.0/2006,2000,g 11.5,6.0
# From MPC 56796
73P-H/Schwassmann-Wachmann,e,11.389,69.903,198.778,3.06223,0.183927,0.6933024,359.948,06/08.0/2006,2000,g 11.5,6.0
# From MPC 56796
73P-J/Schwassmann-Wachmann,e,11.386,69.983,198.673,3.06380,0.183786,0.6933024,359.974,06/08.0/2006,2000,g 11.5,6.0
# From MPC 56797
73P-K/Schwassmann-Wachmann,e,11.390,69.881,198.809,3.06176,0.183970,0.6933024,359.959,06/08.0/2006,2000,g 11.5,6.0
# From MPC 56797
73P-L/Schwassmann-Wachmann,e,11.388,69.911,198.772,3.06211,0.183938,0.6933024,359.937,06/08.0/2006,2000,g 11.5,6.0
# From MPC 56797
73P-M/Schwassmann-Wachmann,e,11.389,69.895,198.787,3.06205,0.183944,0.6933024,359.952,06/08.0/2006,2000,g 11.5,6.0
# From MPC 56797
73P-N/Schwassmann-Wachmann,e,11.389,69.909,198.754,3.06231,0.183921,0.6933024,359.952,06/08.0/2006,2000,g 11.5,6.0
# From MPC 56797
73P-P/Schwassmann-Wachmann,e,11.390,69.900,198.783,3.06222,0.183929,0.6933024,359.839,06/07.0/2006,2000,g 11.5,6.0
# From MPC 56797
73P-Q/Schwassmann-Wachmann,e,11.387,69.944,198.717,3.06298,0.183860,0.6933024,359.867,06/07.0/2006,2000,g 11.5,6.0
# From MPC 56797
73P-R/Schwassmann-Wachmann,e,11.388,69.904,198.776,3.06224,0.183927,0.6933024,359.966,06/08.0/2006,2000,g 11.5,6.0
# From MPC 56797
73P-S/Schwassmann-Wachmann,e,11.127,77.364,188.229,3.22719,0.170007,0.6933024,359.883,06/08.0/2006,2000,g 11.5,6.0
# From MPC 56797
73P-T/Schwassmann-Wachmann,e,11.390,69.912,198.764,3.06258,0.183896,0.6933024,359.848,06/08.0/2006,2000,g 11.5,6.0
# From MPC 56797
73P-U/Schwassmann-Wachmann,e,11.384,69.994,198.659,3.06366,0.183799,0.6933024,359.997,06/09.0/2006,2000,g 11.5,6.0
# From MPC 56797
73P-V/Schwassmann-Wachmann,e,11.651,65.236,204.943,2.97417,0.192156,0.6933024,359.908,06/08.0/2006,2000,g 11.5,6.0
# From MPC 56797
73P-W/Schwassmann-Wachmann,e,11.390,69.884,198.803,3.06185,0.183962,0.6933024,359.908,06/08.0/2006,2000,g 11.5,6.0
# From MPC 56798
73P-X/Schwassmann-Wachmann,e,11.388,69.900,198.778,3.06207,0.183942,0.6933024,359.896,06/08.0/2006,2000,g 11.5,6.0
# From MPC 56798
73P-Y/Schwassmann-Wachmann,e,11.391,69.879,198.785,3.06200,0.183948,0.6933024,359.858,06/08.0/2006,2000,g 11.5,6.0
# From MPC 56798
